{
  "links" : {
    "next" : "https://api.nasa.gov/neo/rest/v1/feed?start_date=2001-05-16&end_date=2001-05-16&detailed=true&api_key=t0TVs3DtDT2H8Oy2Zy8m2eVrNsAVKAexjcZXUckd",
    "prev" : "https://api.nasa.gov/neo/rest/v1/feed?start_date=2001-05-14&end_date=2001-05-14&detailed=true&api_key=t0TVs3DtDT2H8Oy2Zy8m2eVrNsAVKAexjcZXUckd",
    "self" : "https://api.nasa.gov/neo/rest/v1/feed?start_date=2001-05-15&end_date=2001-05-15&detailed=true&api_key=t0TVs3DtDT2H8Oy2Zy8m2eVrNsAVKAexjcZXUckd"
  },
  "element_count" : 4,
  "near_earth_objects" : {
    "2001-05-15" : [ {
      "links" : {
        "self" : "https://api.nasa.gov/neo/rest/v1/neo/3079018?api_key=t0TVs3DtDT2H8Oy2Zy8m2eVrNsAVKAexjcZXUckd"
      },
      "neo_reference_id" : "3079018",
      "name" : "(2001 KD55)",
      "nasa_jpl_url" : "http://ssd.jpl.nasa.gov/sbdb.cgi?sstr=3079018",
      "absolute_magnitude_h" : 20.6,
      "estimated_diameter" : {
        "kilometers" : {
          "estimated_diameter_min" : 0.2016299194,
          "estimated_diameter_max" : 0.4508582062
        },
        "meters" : {
          "estimated_diameter_min" : 201.6299194428,
          "estimated_diameter_max" : 450.8582061718
        },
        "miles" : {
          "estimated_diameter_min" : 0.1252869847,
          "estimated_diameter_max" : 0.2801502144
        },
        "feet" : {
          "estimated_diameter_min" : 661.5155049046,
          "estimated_diameter_max" : 1479.1936371367
        }
      },
      "is_potentially_hazardous_asteroid" : false,
      "close_approach_data" : [ {
        "close_approach_date" : "2001-05-15",
        "epoch_date_close_approach" : 989910000000,
        "relative_velocity" : {
          "kilometers_per_second" : "7.0690917471",
          "kilometers_per_hour" : "25448.7302894499",
          "miles_per_hour" : "15812.8513290196"
        },
        "miss_distance" : {
          "astronomical" : "0.2723725778",
          "lunar" : "105.9529342651",
          "kilometers" : "40746356",
          "miles" : "25318612"
        },
        "orbiting_body" : "Earth"
      } ],
      "orbital_data" : {
        "orbit_id" : "17",
        "orbit_determination_date" : "2017-04-06 09:16:21",
        "orbit_uncertainty" : "1",
        "minimum_orbit_intersection" : ".249175",
        "jupiter_tisserand_invariant" : "2.791",
        "epoch_osculation" : "2458000.5",
        "eccentricity" : ".6236344706265192",
        "semi_major_axis" : "3.343384757076465",
        "inclination" : "9.985439343977012",
        "ascending_node_longitude" : "228.4641233634584",
        "orbital_period" : "2232.944681351736",
        "perihelion_distance" : "1.25833477399631",
        "perihelion_argument" : "6.753619385121375",
        "aphelion_distance" : "5.428434740156619",
        "perihelion_time" : "2458751.776440302774",
        "mean_anomaly" : "238.8776449467287",
        "mean_motion" : ".1612220862462523",
        "equinox" : "J2000"
      }
    }, {
      "links" : {
        "self" : "https://api.nasa.gov/neo/rest/v1/neo/3564854?api_key=t0TVs3DtDT2H8Oy2Zy8m2eVrNsAVKAexjcZXUckd"
      },
      "neo_reference_id" : "3564854",
      "name" : "(2011 JY1)",
      "nasa_jpl_url" : "http://ssd.jpl.nasa.gov/sbdb.cgi?sstr=3564854",
      "absolute_magnitude_h" : 24.6,
      "estimated_diameter" : {
        "kilometers" : {
          "estimated_diameter_min" : 0.0319561887,
          "estimated_diameter_max" : 0.0714562102
        },
        "meters" : {
          "estimated_diameter_min" : 31.9561886721,
          "estimated_diameter_max" : 71.4562101727
        },
        "miles" : {
          "estimated_diameter_min" : 0.0198566489,
          "estimated_diameter_max" : 0.0444008168
        },
        "feet" : {
          "estimated_diameter_min" : 104.8431420431,
          "estimated_diameter_max" : 234.436392583
        }
      },
      "is_potentially_hazardous_asteroid" : false,
      "close_approach_data" : [ {
        "close_approach_date" : "2001-05-15",
        "epoch_date_close_approach" : 989910000000,
        "relative_velocity" : {
          "kilometers_per_second" : "20.5697968531",
          "kilometers_per_hour" : "74051.2686710444",
          "miles_per_hour" : "46012.5785806276"
        },
        "miss_distance" : {
          "astronomical" : "0.3055491752",
          "lunar" : "118.8586273193",
          "kilometers" : "45709508",
          "miles" : "28402570"
        },
        "orbiting_body" : "Earth"
      } ],
      "orbital_data" : {
        "orbit_id" : "23",
        "orbit_determination_date" : "2017-04-06 08:53:32",
        "orbit_uncertainty" : "0",
        "minimum_orbit_intersection" : ".00157346",
        "jupiter_tisserand_invariant" : "5.012",
        "epoch_osculation" : "2458000.5",
        "eccentricity" : ".4126384856667571",
        "semi_major_axis" : "1.26450708489448",
        "inclination" : "2.563673816731324",
        "ascending_node_longitude" : "216.2994632193608",
        "orbital_period" : "519.3741463984015",
        "perihelion_distance" : ".7427227962687366",
        "perihelion_argument" : "278.0125291791391",
        "aphelion_distance" : "1.786291373520224",
        "perihelion_time" : "2458224.004972490597",
        "mean_anomaly" : "205.079331240153",
        "mean_motion" : ".6931419334143198",
        "equinox" : "J2000"
      }
    }, {
      "links" : {
        "self" : "https://api.nasa.gov/neo/rest/v1/neo/3662637?api_key=t0TVs3DtDT2H8Oy2Zy8m2eVrNsAVKAexjcZXUckd"
      },
      "neo_reference_id" : "3662637",
      "name" : "(2014 DG23)",
      "nasa_jpl_url" : "http://ssd.jpl.nasa.gov/sbdb.cgi?sstr=3662637",
      "absolute_magnitude_h" : 25.1,
      "estimated_diameter" : {
        "kilometers" : {
          "estimated_diameter_min" : 0.0253837029,
          "estimated_diameter_max" : 0.0567596853
        },
        "meters" : {
          "estimated_diameter_min" : 25.3837029364,
          "estimated_diameter_max" : 56.7596852866
        },
        "miles" : {
          "estimated_diameter_min" : 0.0157726969,
          "estimated_diameter_max" : 0.0352688224
        },
        "feet" : {
          "estimated_diameter_min" : 83.279867942,
          "estimated_diameter_max" : 186.2194458756
        }
      },
      "is_potentially_hazardous_asteroid" : false,
      "close_approach_data" : [ {
        "close_approach_date" : "2001-05-15",
        "epoch_date_close_approach" : 989910000000,
        "relative_velocity" : {
          "kilometers_per_second" : "16.1657348989",
          "kilometers_per_hour" : "58196.6456362157",
          "miles_per_hour" : "36161.1323954586"
        },
        "miss_distance" : {
          "astronomical" : "0.3914065303",
          "lunar" : "152.2571411133",
          "kilometers" : "58553584",
          "miles" : "36383512"
        },
        "orbiting_body" : "Earth"
      } ],
      "orbital_data" : {
        "orbit_id" : "6",
        "orbit_determination_date" : "2017-04-06 08:42:18",
        "orbit_uncertainty" : "6",
        "minimum_orbit_intersection" : ".0547516",
        "jupiter_tisserand_invariant" : "6.492",
        "epoch_osculation" : "2458000.5",
        "eccentricity" : ".2154549925607379",
        "semi_major_axis" : ".9143563470361681",
        "inclination" : "11.83231086626747",
        "ascending_node_longitude" : "157.1965601480407",
        "orbital_period" : "319.3534797775092",
        "perihelion_distance" : ".717353707087627",
        "perihelion_argument" : "215.2556233336167",
        "aphelion_distance" : "1.111358986984709",
        "perihelion_time" : "2457879.328301496710",
        "mean_anomaly" : "136.5941322811811",
        "mean_motion" : "1.127277524111555",
        "equinox" : "J2000"
      }
    }, {
      "links" : {
        "self" : "https://api.nasa.gov/neo/rest/v1/neo/3752432?api_key=t0TVs3DtDT2H8Oy2Zy8m2eVrNsAVKAexjcZXUckd"
      },
      "neo_reference_id" : "3752432",
      "name" : "(2016 HE3)",
      "nasa_jpl_url" : "http://ssd.jpl.nasa.gov/sbdb.cgi?sstr=3752432",
      "absolute_magnitude_h" : 24.3,
      "estimated_diameter" : {
        "kilometers" : {
          "estimated_diameter_min" : 0.0366906138,
          "estimated_diameter_max" : 0.0820427065
        },
        "meters" : {
          "estimated_diameter_min" : 36.6906137531,
          "estimated_diameter_max" : 82.0427064882
        },
        "miles" : {
          "estimated_diameter_min" : 0.0227984834,
          "estimated_diameter_max" : 0.0509789586
        },
        "feet" : {
          "estimated_diameter_min" : 120.3760332259,
          "estimated_diameter_max" : 269.1689931548
        }
      },
      "is_potentially_hazardous_asteroid" : false,
      "close_approach_data" : [ {
        "close_approach_date" : "2001-05-15",
        "epoch_date_close_approach" : 989910000000,
        "relative_velocity" : {
          "kilometers_per_second" : "11.3767023925",
          "kilometers_per_hour" : "40956.128612883",
          "miles_per_hour" : "25448.5455817106"
        },
        "miss_distance" : {
          "astronomical" : "0.0827552421",
          "lunar" : "32.1917915344",
          "kilometers" : "12380009",
          "miles" : "7692580.5"
        },
        "orbiting_body" : "Earth"
      } ],
      "orbital_data" : {
        "orbit_id" : "12",
        "orbit_determination_date" : "2017-04-06 08:26:22",
        "orbit_uncertainty" : "7",
        "minimum_orbit_intersection" : ".0558948",
        "jupiter_tisserand_invariant" : "7.404",
        "epoch_osculation" : "2458000.5",
        "eccentricity" : ".4009808265262483",
        "semi_major_axis" : ".7756431778134538",
        "inclination" : "10.64182928594618",
        "ascending_node_longitude" : "216.4820443775928",
        "orbital_period" : "249.511974145755",
        "perihelion_distance" : ".4646251352843694",
        "perihelion_argument" : "173.1568110516509",
        "aphelion_distance" : "1.086661220342538",
        "perihelion_time" : "2458118.021174137248",
        "mean_anomaly" : "190.4385076738049",
        "mean_motion" : "1.442816527072574",
        "equinox" : "J2000"
      }
    } ]
  }
}